start=new Date('2021-10-29T00:00:00.000Z').valueOf();
sats=[{"MEAN_ANOMALY":"288.2198","LAUNCH_DATE":"2021-03-14","BSTAR":"0.00003794400000","SEMIMAJOR_AXIS":"6925.393","EPOCH":"2021-10-28T21:11:27.159072","PERIOD":"95.593","PERIAPSIS":"546.121","CENTER_NAME":"EARTH","RCS_SIZE":"LARGE","INCLINATION":"53.0554","APOAPSIS":"548.395","MEAN_MOTION":"15.06385573","TIME_SYSTEM":"UTC","OBJECT_NAME":"STARLINK-2293","NORAD_CAT_ID":"47863","ELEMENT_SET_NO":"999","COUNTRY_CODE":"US","EPHEMERIS_TYPE":"0","MEAN_MOTION_DOT":"0.00000283","TLE_LINE2":"2 47863  53.0554 222.0028 0001642  71.8970 288.2198 15.06385573 36126","MEAN_MOTION_DDOT":"0.0000000000000","RA_OF_ASC_NODE":"222.0028","OBJECT_ID":"2021-021D","REV_AT_EPOCH":"3612","DECAY_DATE":null,"ECCENTRICITY":"0.00016420","GP_ID":"188367544","TLE_LINE1":"1 47863U 21021D   21301.88295323  .00000283  00000-0  37944-4 0  9995","FILE":"3189402","CLASSIFICATION_TYPE":"U","REF_FRAME":"TEME","OBJECT_TYPE":"PAYLOAD","ARG_OF_PERICENTER":"71.8970","SITE":"AFETR","MEAN_ELEMENT_THEORY":"SGP4"},{"ELEMENT_SET_NO":"999","COUNTRY_CODE":"US","OBJECT_NAME":"STARLINK-2304","NORAD_CAT_ID":"47864","TIME_SYSTEM":"UTC","MEAN_MOTION":"15.06391797","INCLINATION":"53.0559","APOAPSIS":"548.354","CENTER_NAME":"EARTH","PERIAPSIS":"546.124","RCS_SIZE":"LARGE","EPOCH":"2021-10-28T11:01:01.907904","PERIOD":"95.593","SEMIMAJOR_AXIS":"6925.374","BSTAR":"-0.00004532700000","LAUNCH_DATE":"2021-03-14","MEAN_ANOMALY":"286.4039","MEAN_ELEMENT_THEORY":"SGP4","SITE":"AFETR","ARG_OF_PERICENTER":"73.7127","CLASSIFICATION_TYPE":"U","OBJECT_TYPE":"PAYLOAD","REF_FRAME":"TEME","FILE":"3189402","TLE_LINE1":"1 47864U 21021E   21301.45904986 -.00000956  00000-0 -45327-4 0  9994","GP_ID":"188367791","DECAY_DATE":null,"ECCENTRICITY":"0.00016100","REV_AT_EPOCH":"3617","RA_OF_ASC_NODE":"213.9064","TLE_LINE2":"2 47864  53.0559 213.9064 0001610  73.7127 286.4039 15.06391797 36175","MEAN_MOTION_DDOT":"0.0000000000000","OBJECT_ID":"2021-021E","MEAN_MOTION_DOT":"-0.00000956","EPHEMERIS_TYPE":"0"},{"TLE_LINE2":"2 47865  53.0540 223.5942 0001642  80.6254 279.4921 15.06401212 36177","RA_OF_ASC_NODE":"223.5942","MEAN_MOTION_DDOT":"0.0000000000000","OBJECT_ID":"2021-021F","REV_AT_EPOCH":"3617","DECAY_DATE":null,"ECCENTRICITY":"0.00016420","EPHEMERIS_TYPE":"0","MEAN_MOTION_DOT":"0.00000548","ARG_OF_PERICENTER":"80.6254","SITE":"AFETR","MEAN_ELEMENT_THEORY":"SGP4","GP_ID":"188366543","TLE_LINE1":"1 47865U 21021F   21301.52541062  .00000548  00000-0  55680-4 0  9993","FILE":"3189402","CLASSIFICATION_TYPE":"U","OBJECT_TYPE":"PAYLOAD","REF_FRAME":"TEME","BSTAR":"0.00005568000000","SEMIMAJOR_AXIS":"6925.345","PERIOD":"95.592","EPOCH":"2021-10-28T12:36:35.477568","MEAN_ANOMALY":"279.4921","LAUNCH_DATE":"2021-03-14","OBJECT_NAME":"STARLINK-2310","NORAD_CAT_ID":"47865","ELEMENT_SET_NO":"999","COUNTRY_CODE":"US","PERIAPSIS":"546.073","CENTER_NAME":"EARTH","RCS_SIZE":"LARGE","INCLINATION":"53.0540","APOAPSIS":"548.347","MEAN_MOTION":"15.06401212","TIME_SYSTEM":"UTC"},{"NORAD_CAT_ID":"47866","OBJECT_NAME":"STARLINK-2320","COUNTRY_CODE":"US","ELEMENT_SET_NO":"999","RCS_SIZE":"LARGE","CENTER_NAME":"EARTH","PERIAPSIS":"546.045","APOAPSIS":"548.390","INCLINATION":"53.0557","MEAN_MOTION":"15.06398833","TIME_SYSTEM":"UTC","BSTAR":"-0.00004719800000","SEMIMAJOR_AXIS":"6925.352","EPOCH":"2021-10-28T12:41:54.079296","PERIOD":"95.592","MEAN_ANOMALY":"296.5373","LAUNCH_DATE":"2021-03-14","ARG_OF_PERICENTER":"63.5790","SITE":"AFETR","MEAN_ELEMENT_THEORY":"SGP4","GP_ID":"188366793","TLE_LINE1":"1 47866U 21021G   21301.52909814 -.00000984  00000-0 -47198-4 0  9998","FILE":"3189402","REF_FRAME":"TEME","OBJECT_TYPE":"PAYLOAD","CLASSIFICATION_TYPE":"U","OBJECT_ID":"2021-021G","TLE_LINE2":"2 47866  53.0557 223.5857 0001693  63.5790 296.5373 15.06398833 36223","RA_OF_ASC_NODE":"223.5857","MEAN_MOTION_DDOT":"0.0000000000000","REV_AT_EPOCH":"3622","ECCENTRICITY":"0.00016930","DECAY_DATE":null,"EPHEMERIS_TYPE":"0","MEAN_MOTION_DOT":"-0.00000984"},{"MEAN_ANOMALY":"297.6350","LAUNCH_DATE":"2021-03-14","BSTAR":"-0.00002350500000","EPOCH":"2021-10-28T20:30:19.059264","PERIOD":"95.592","SEMIMAJOR_AXIS":"6925.358","APOAPSIS":"548.408","INCLINATION":"53.0548","RCS_SIZE":"LARGE","CENTER_NAME":"EARTH","PERIAPSIS":"546.038","TIME_SYSTEM":"UTC","MEAN_MOTION":"15.06396896","NORAD_CAT_ID":"47867","OBJECT_NAME":"STARLINK-2321","COUNTRY_CODE":"US","ELEMENT_SET_NO":"999","EPHEMERIS_TYPE":"0","MEAN_MOTION_DOT":"-0.00000632","REV_AT_EPOCH":"3621","OBJECT_ID":"2021-021H","TLE_LINE2":"2 47867  53.0548 212.1214 0001711  62.4813 297.6350 15.06396896 36213","RA_OF_ASC_NODE":"212.1214","MEAN_MOTION_DDOT":"0.0000000000000","ECCENTRICITY":"0.00017110","DECAY_DATE":null,"TLE_LINE1":"1 47867U 21021H   21301.85438726 -.00000632  00000-0 -23505-4 0  9990","GP_ID":"188368045","OBJECT_TYPE":"PAYLOAD","REF_FRAME":"TEME","CLASSIFICATION_TYPE":"U","FILE":"3189402","ARG_OF_PERICENTER":"62.4813","MEAN_ELEMENT_THEORY":"SGP4","SITE":"AFETR"},{"LAUNCH_DATE":"2021-03-14","MEAN_ANOMALY":"307.8150","PERIOD":"93.165","EPOCH":"2021-10-28T16:39:40.601952","SEMIMAJOR_AXIS":"6807.621","BSTAR":"-0.00912720000000","TIME_SYSTEM":"UTC","MEAN_MOTION":"15.45644750","INCLINATION":"53.0438","APOAPSIS":"429.713","PERIAPSIS":"429.260","CENTER_NAME":"EARTH","RCS_SIZE":"LARGE","ELEMENT_SET_NO":"999","COUNTRY_CODE":"US","OBJECT_NAME":"STARLINK-2323","NORAD_CAT_ID":"47868","MEAN_MOTION_DOT":"-0.00423747","EPHEMERIS_TYPE":"0","DECAY_DATE":null,"ECCENTRICITY":"0.00003330","REV_AT_EPOCH":"3690","RA_OF_ASC_NODE":"165.3404","TLE_LINE2":"2 47868  53.0438 165.3404 0000333  52.2887 307.8150 15.45644750 36905","MEAN_MOTION_DDOT":"0.0000000000000","OBJECT_ID":"2021-021J","CLASSIFICATION_TYPE":"U","REF_FRAME":"TEME","OBJECT_TYPE":"PAYLOAD","FILE":"3189402","TLE_LINE1":"1 47868U 21021J   21301.69421993 -.00423747  00000-0 -91272-2 0  9991","GP_ID":"188368292","MEAN_ELEMENT_THEORY":"SGP4","SITE":"AFETR","ARG_OF_PERICENTER":"52.2887"},{"REV_AT_EPOCH":"3630","OBJECT_ID":"2021-021K","TLE_LINE2":"2 47869  53.0563 213.9351 0001723  68.9285 291.1888 15.06388544 36306","MEAN_MOTION_DDOT":"0.0000000000000","RA_OF_ASC_NODE":"213.9351","ECCENTRICITY":"0.00017230","DECAY_DATE":null,"EPHEMERIS_TYPE":"0","MEAN_MOTION_DOT":"-0.00001100","ARG_OF_PERICENTER":"68.9285","MEAN_ELEMENT_THEORY":"SGP4","SITE":"AFETR","GP_ID":"188367044","TLE_LINE1":"1 47869U 21021K   21301.45262251 -.00001100  00000-0 -54968-4 0  9994","OBJECT_TYPE":"PAYLOAD","REF_FRAME":"TEME","CLASSIFICATION_TYPE":"U","FILE":"3189402","BSTAR":"-0.00005496800000","PERIOD":"95.593","EPOCH":"2021-10-28T10:51:46.584864","SEMIMAJOR_AXIS":"6925.384","MEAN_ANOMALY":"291.1888","LAUNCH_DATE":"2021-03-14","NORAD_CAT_ID":"47869","OBJECT_NAME":"STARLINK-2324","COUNTRY_CODE":"US","ELEMENT_SET_NO":"999","APOAPSIS":"548.442","INCLINATION":"53.0563","RCS_SIZE":"LARGE","PERIAPSIS":"546.055","CENTER_NAME":"EARTH","TIME_SYSTEM":"UTC","MEAN_MOTION":"15.06388544"},{"MEAN_MOTION_DOT":"0.00000147","EPHEMERIS_TYPE":"0","ECCENTRICITY":"0.00015510","DECAY_DATE":null,"REV_AT_EPOCH":"3575","OBJECT_ID":"2021-021L","MEAN_MOTION_DDOT":"0.0000000000000","TLE_LINE2":"2 47870  53.0569 238.6361 0001551  73.7363 286.3797 15.05587069 35754","RA_OF_ASC_NODE":"238.6361","OBJECT_TYPE":"PAYLOAD","REF_FRAME":"TEME","CLASSIFICATION_TYPE":"U","FILE":"3189402","GP_ID":"188367294","TLE_LINE1":"1 47870U 21021L   21301.53534796  .00000147  00000-0  29256-4 0  9991","MEAN_ELEMENT_THEORY":"SGP4","SITE":"AFETR","ARG_OF_PERICENTER":"73.7363","LAUNCH_DATE":"2021-03-14","MEAN_ANOMALY":"286.3797","EPOCH":"2021-10-28T12:50:54.063744","PERIOD":"95.644","SEMIMAJOR_AXIS":"6927.841","BSTAR":"0.00002925600000","TIME_SYSTEM":"UTC","MEAN_MOTION":"15.05587069","APOAPSIS":"550.781","INCLINATION":"53.0569","RCS_SIZE":"MEDIUM","CENTER_NAME":"EARTH","PERIAPSIS":"548.632","COUNTRY_CODE":"US","ELEMENT_SET_NO":"999","NORAD_CAT_ID":"47870","OBJECT_NAME":"STARLINK-2326"},{"FILE":"3189111","CLASSIFICATION_TYPE":"U","OBJECT_TYPE":"PAYLOAD","REF_FRAME":"TEME","GP_ID":"188338250","TLE_LINE1":"1 47871U 21021M   21301.24988489 -.00001963  00000-0 -11286-3 0  9994","SITE":"AFETR","MEAN_ELEMENT_THEORY":"SGP4","ARG_OF_PERICENTER":"87.0949","MEAN_MOTION_DOT":"-0.00001963","EPHEMERIS_TYPE":"0","DECAY_DATE":null,"ECCENTRICITY":"0.00018060","TLE_LINE2":"2 47871  53.0562 214.8448 0001806  87.0949 273.0247 15.06405068 36169","RA_OF_ASC_NODE":"214.8448","MEAN_MOTION_DDOT":"0.0000000000000","OBJECT_ID":"2021-021M","REV_AT_EPOCH":"3616","MEAN_MOTION":"15.06405068","TIME_SYSTEM":"UTC","CENTER_NAME":"EARTH","PERIAPSIS":"545.947","RCS_SIZE":"LARGE","INCLINATION":"53.0562","APOAPSIS":"548.449","ELEMENT_SET_NO":"999","COUNTRY_CODE":"US","OBJECT_NAME":"STARLINK-2327","NORAD_CAT_ID":"47871","LAUNCH_DATE":"2021-03-14","MEAN_ANOMALY":"273.0247","SEMIMAJOR_AXIS":"6925.333","EPOCH":"2021-10-28T05:59:50.054496","PERIOD":"95.592","BSTAR":"-0.00011286000000"},{"MEAN_ANOMALY":"207.4457","LAUNCH_DATE":"2021-03-14","BSTAR":"-0.01321000000000","SEMIMAJOR_AXIS":"6923.293","EPOCH":"2021-10-28T20:05:50.933184","PERIOD":"95.550","RCS_SIZE":"LARGE","CENTER_NAME":"EARTH","PERIAPSIS":"542.355","APOAPSIS":"547.961","INCLINATION":"53.0527","MEAN_MOTION":"15.07070931","TIME_SYSTEM":"UTC","NORAD_CAT_ID":"47872","OBJECT_NAME":"STARLINK-2328","COUNTRY_CODE":"US","ELEMENT_SET_NO":"999","EPHEMERIS_TYPE":"0","MEAN_MOTION_DOT":"-0.00195299","OBJECT_ID":"2021-021N","RA_OF_ASC_NODE":"172.0394","TLE_LINE2":"2 47872  53.0527 172.0394 0004048 152.6746 207.4457 15.07070931 36826","MEAN_MOTION_DDOT":"0.0000000000000","REV_AT_EPOCH":"3682","ECCENTRICITY":"0.00040480","DECAY_DATE":null,"GP_ID":"188367792","TLE_LINE1":"1 47872U 21021N   21301.83739506 -.00195299  00000-0 -13210-1 0  9997","FILE":"3189402","OBJECT_TYPE":"PAYLOAD","REF_FRAME":"TEME","CLASSIFICATION_TYPE":"U","ARG_OF_PERICENTER":"152.6746","SITE":"AFETR","MEAN_ELEMENT_THEORY":"SGP4"}];
